NORAD_CAT_ID,OBJECT_NAME,OBJECT_TYPE,EPOCH,MEAN_MOTION,ECCENTRICITY,INCLINATION,RA_OF_ASC_NODE,ARG_OF_PERICENTER,MEAN_ANOMALY,BSTAR,MEAN_MOTION_DOT,MEAN_MOTION_DDOT,TLE_LINE0,TLE_LINE1,TLE_LINE2,SEMIMAJOR_AXIS,PERIOD,APOGEE,PERIGEE,DECAYED
51959.0,STARLINK-3704,PAYLOAD,2022-08-12 22:00:01,15.08870095,0.000242,53.2156,126.4722,59.9621,189.4246,-0.0022293,-0.00035624,0.0,0 STARLINK-3704,1 51959U 22025D   22224.91668981 -.00035624  00000-0 -22293-2 0  9992,2 51959  53.2156 126.4722 0002420  59.9621 189.4246 15.08870095  1308,6917.788000000001,95.436,541.328,537.979,0.0
51959.0,STARLINK-3704,PAYLOAD,2022-08-13 06:00:02,15.08843899,0.0002355999999999,53.2154,124.9764,55.2426,205.7497,-0.0024753,-0.00039473,0.0,0 STARLINK-3704,1 51959U 22025D   22225.25002315 -.00039473  00000-0 -24753-2 0  9992,2 51959  53.2154 124.9764 0002356  55.2426 205.7497 15.08843899 25369,6917.868,95.437,541.363,538.104,0.0
51959.0,STARLINK-3704,PAYLOAD,2022-08-13 14:00:01,15.08782144,0.0002153,53.2156,123.4783,59.3071,213.2128,0.0027215,0.00043223,0.0,0 STARLINK-3704,1 51959U 22025D   22225.58334491  .00043223  00000-0  27215-2 0  9993,2 51959  53.2156 123.4783 0002153  59.3071 213.2128 15.08782144  1300,6918.057,95.441,541.4119999999998,538.433,0.0
51959.0,STARLINK-3704,PAYLOAD,2022-08-13 22:00:00,15.08819477,0.0002259,53.2157,121.9831,58.0003,226.063,-0.000973,-0.00015732,0.0,0 STARLINK-3704,1 51959U 22025D   22225.91667824 -.00015732  00000-0 -97300-3 0  9998,2 51959  53.2157 121.9831 0002259  58.0003 226.0630 15.08819477  1306,6917.943,95.439,541.371,538.245,0.0
51959.0,STARLINK-3704,PAYLOAD,2022-08-14 06:00:02,15.08794979,0.0002398,53.2158,120.4859,54.3898,241.3031,0.0042788999999999,0.00068389,0.0,0 STARLINK-3704,1 51959U 22025D   22226.25002315  .00068389  00000-0  42789-2 0  9998,2 51959  53.2158 120.4859 0002398  54.3898 241.3031 15.08794979 25519,6918.018,95.44,541.5419999999998,538.224,0.0
51959.0,STARLINK-3704,PAYLOAD,2022-08-14 14:00:01,15.08804367,0.0002164,53.2155,118.989,61.7089,245.5014,0.0035989,0.000574,0.0,0 STARLINK-3704,1 51959U 22025D   22226.58334491  .00057400  00000-0  35989-2 0  9993,2 51959  53.2155 118.9890 0002164  61.7089 245.5014 15.08804367  1309,6917.989000000001,95.44,541.351,538.357,0.0
51959.0,STARLINK-3704,PAYLOAD,2022-08-14 22:00:00,15.08847076,0.0002275999999999,53.2155,117.4939,59.5183,259.2659,-0.00092893,-0.00015045,0.0,0 STARLINK-3704,1 51959U 22025D   22226.91667824 -.00015045  00000-0 -92893-3 0  9998,2 51959  53.2155 117.4939 0002276  59.5183 259.2659 15.08847076  1302,6917.859,95.437,541.298,538.149,0.0
51959.0,STARLINK-3704,PAYLOAD,2022-08-15 00:00:00,15.08839482,0.0002342,53.2154,117.1201,58.6443,353.0396,-0.00014554,-2.604e-05,0.0,0 STARLINK-3704,1 51959U 22025D   22227.00001157 -.00002604  00000-0 -14554-3 0  9995,2 51959  53.2154 117.1201 0002342  58.6443 353.0396 15.08839482 25627,6917.882,95.438,541.367,538.127,0.0
51959.0,STARLINK-3704,PAYLOAD,2022-08-15 14:00:01,15.08834759,0.0002125,53.215,114.4995,64.0212,277.966,0.0018625,0.00029474,0.0,0 STARLINK-3704,1 51959U 22025D   22227.58334491  .00029474  00000-0  18625-2 0  9992,2 51959  53.2150 114.4995 0002125  64.0212 277.9660 15.08834759  1306,6917.896,95.438,541.231,538.2909999999998,0.0
51959.0,STARLINK-3704,PAYLOAD,2022-08-15 22:00:00,15.08848067,0.00022,53.215,113.0045,60.4882,293.1044,-0.0017486,-0.00028017,0.0,0 STARLINK-3704,1 51959U 22025D   22227.91667824 -.00028017  00000-0 -17486-2 0  9996,2 51959  53.2150 113.0045 0002200  60.4882 293.1044 15.08848067  1307,6917.856,95.437,541.243,538.1990000000002,0.0
51959.0,STARLINK-3704,PAYLOAD,2022-08-16 08:00:01,15.08856164,0.0002154,53.2147,111.1334,60.7402,37.3402,-0.0015409,-0.0002474,0.0,0 STARLINK-3704,1 51959U 22025D   22228.33334491 -.00024740  00000-0 -15409-2 0  9996,2 51959  53.2147 111.1334 0002154  60.7402  37.3402 15.08856164 25839,6917.831,95.437,541.186,538.206,0.0
51959.0,STARLINK-3704,PAYLOAD,2022-08-16 14:00:01,15.08822546,0.0002075,53.2145,110.01,65.7072,311.0817,0.0033540999999999,0.00053473,0.0,0 STARLINK-3704,1 51959U 22025D   22228.58334491  .00053473  00000-0  33541-2 0  9993,2 51959  53.2145 110.0100 0002075  65.7072 311.0817 15.08822546  1301,6917.934,95.439,541.234,538.363,0.0
51959.0,STARLINK-3704,PAYLOAD,2022-08-16 22:00:00,15.08865735,0.000218,53.2145,108.5151,61.8303,326.5547,-0.0018725,-0.00029987,0.0,0 STARLINK-3704,1 51959U 22025D   22228.91667824 -.00029987  00000-0 -18725-2 0  9991,2 51959  53.2145 108.5151 0002180  61.8303 326.5547 15.08865735  1308,6917.802,95.436,541.175,538.159,0.0
51959.0,STARLINK-3704,PAYLOAD,2022-08-17 16:00:00,15.08837011,0.0002052,53.2145,105.1466,67.0273,77.4623,0.0011120999999999,0.00017454,0.0,0 STARLINK-3704,1 51959U 22025D   22229.66667824  .00017454  00000-0  11121-2 0  9991,2 51959  53.2145 105.1466 0002052  67.0273  77.4623 15.08837011  1305,6917.89,95.438,541.174,538.335,0.0
51959.0,STARLINK-3704,PAYLOAD,2022-08-18 14:00:01,15.08840676,0.0002053,53.2158,101.0288,67.1053,19.2941,-0.0028166999999999,-0.00044839,0.0,0 STARLINK-3704,1 51959U 22025D   22230.58334491 -.00044839  00000-0 -28167-2 0  9992,2 51959  53.2158 101.0288 0002053  67.1053  19.2941 15.08840676  1302,6917.878000000002,95.438,541.164,538.323,0.0
51959.0,STARLINK-3704,PAYLOAD,2022-08-18 22:00:00,15.08830562,0.0002258,53.2171,99.5334,64.8593,33.1092,0.00063021,9.753e-05,0.0,0 STARLINK-3704,1 51959U 22025D   22230.91667824  .00009753  00000-0  63021-3 0  9991,2 51959  53.2171  99.5334 0002258  64.8593  33.1092 15.08830562  1305,6917.909000000002,95.438,541.336,538.212,0.0
51959.0,STARLINK-3704,PAYLOAD,2022-08-19 14:00:01,15.088246,0.0001886999999999,53.2149,96.5416,63.957,57.1914,0.0026343,0.00041869,0.0,0 STARLINK-3704,1 51959U 22025D   22231.58334491  .00041869  00000-0  26343-2 0  9995,2 51959  53.2149  96.5416 0001887  63.9570  57.1914 15.08824600  1305,6917.927,95.439,541.0980000000002,538.487,0.0
51959.0,STARLINK-3704,PAYLOAD,2022-08-19 22:00:00,15.08854652,0.0002014,53.215,95.0471,58.433,74.305,-0.0022009,-0.0003516,0.0,0 STARLINK-3704,1 51959U 22025D   22231.91667824 -.00035160  00000-0 -22009-2 0  9995,2 51959  53.2150  95.0471 0002014  58.4330  74.3050 15.08854652  1300,6917.8359999999975,95.437,541.094,538.307,0.0
51959.0,STARLINK-3704,PAYLOAD,2022-08-20 08:00:01,15.08833944,0.0001844999999999,53.2154,93.1754,58.5551,178.6778,-0.0010299,-0.00016639,0.0,0 STARLINK-3704,1 51959U 22025D   22232.33334491 -.00016639  00000-0 -10299-2 0  9991,2 51959  53.2154  93.1754 0001845  58.5551 178.6778 15.08833944 26431,6917.899,95.438,541.04,538.488,0.0
51959.0,STARLINK-3704,PAYLOAD,2022-08-20 14:00:01,15.08825202,0.0001849,53.2156,92.0525,63.4061,92.5177,0.0021576,0.00034204,0.0,0 STARLINK-3704,1 51959U 22025D   22232.58334491  .00034204  00000-0  21576-2 0  9994,2 51959  53.2156  92.0525 0001849  63.4061  92.5177 15.08825202  1306,6917.926,95.438,541.07,538.511,0.0
51959.0,STARLINK-3704,PAYLOAD,2022-08-20 22:00:00,15.08837763,0.0001984,53.2157,90.558,57.5738,109.9412,0.00026349,3.908e-05,0.0,0 STARLINK-3704,1 51959U 22025D   22232.91667824  .00003908  00000-0  26349-3 0  9991,2 51959  53.2157  90.5580 0001984  57.5738 109.9412 15.08837763  1306,6917.887,95.438,541.125,538.38,0.0
51959.0,STARLINK-3704,PAYLOAD,2022-08-21 00:00:00,15.08823549,0.0002006999999999,53.2158,90.1841,56.3242,204.0933,0.0025266,0.00040134,0.0,0 STARLINK-3704,1 51959U 22025D   22233.00001157  .00040134  00000-0  25266-2 0  9991,2 51959  53.2158  90.1841 0002007  56.3242 204.0933 15.08823549 26531,6917.931,95.439,541.184,538.4069999999998,0.0
51959.0,STARLINK-3704,PAYLOAD,2022-08-21 14:00:01,15.08819193,0.0001776,53.2161,87.5636,63.3795,127.325,0.0016291,0.0002572,0.0,0 STARLINK-3704,1 51959U 22025D   22233.58334491  .00025720  00000-0  16291-2 0  9996,2 51959  53.2161  87.5636 0001776  63.3795 127.3250 15.08819193  1307,6917.944,95.439,541.038,538.58,0.0
51959.0,STARLINK-3704,PAYLOAD,2022-08-21 16:00:00,15.08836738,0.0001786999999999,53.2162,87.1899,62.5171,221.0767,-0.0002592,-4.411e-05,0.0,0 STARLINK-3704,1 51959U 22025D   22233.66667824 -.00004411  00000-0 -25920-3 0  9990,2 51959  53.2162  87.1899 0001787  62.5171 221.0767 15.08836738 26638,6917.89,95.438,540.992,538.519,0.0
51959.0,STARLINK-3704,PAYLOAD,2022-08-21 22:00:00,15.08823745,0.0001916,53.2161,86.069,56.8646,145.4218,0.00045153,6.902e-05,0.0,0 STARLINK-3704,1 51959U 22025D   22233.91667824  .00006902  00000-0  45153-3 0  9993,2 51959  53.2161  86.0690 0001916  56.8646 145.4218 15.08823745  1302,6917.93,95.439,541.121,538.47,0.0
51959.0,STARLINK-3704,PAYLOAD,2022-08-22 12:00:00,15.08820503,0.0001743,53.2161,83.4485,63.7947,68.7715,0.0026554,0.00042204,0.0,0 STARLINK-3704,1 51959U 22025D   22234.50001157  .00042204  00000-0  26554-2 0  9998,2 51959  53.2161  83.4485 0001743  63.7947  68.7715 15.08820503  1302,6917.94,95.439,541.011,538.599,0.0
51959.0,STARLINK-3704,PAYLOAD,2022-08-22 22:00:00,15.08835297,0.0001909999999999,53.216,81.58,58.4617,178.5973,0.00071555,0.00011117,0.0,0 STARLINK-3704,1 51959U 22025D   22234.91667824  .00011117  00000-0  71555-3 0  9993,2 51959  53.2160  81.5800 0001910  58.4617 178.5973 15.08835297 26828,6917.895,95.438,541.081,538.438,0.0
51959.0,STARLINK-3704,PAYLOAD,2022-08-23 14:00:01,15.0885587,0.0001698,53.2159,78.5856,66.7232,193.5328,-0.0020655,-0.00033025,0.0,0 STARLINK-3704,1 51959U 22025D   22235.58334491 -.00033025  00000-0 -20655-2 0  9996,2 51959  53.2159  78.5856 0001698  66.7232 193.5328 15.08855870  1307,6917.831999999999,95.437,540.872,538.5219999999998,0.0
51959.0,STARLINK-3704,PAYLOAD,2022-08-23 22:00:01,15.08813387,0.0001801,53.2156,77.0909,58.6703,213.2516,0.0010364,0.00016233,0.0,0 STARLINK-3704,1 51959U 22025D   22235.91668981  .00016233  00000-0  10364-2 0  9993,2 51959  53.2156  77.0909 0001801  58.6703 213.2516 15.08813387  1302,6917.962,95.439,541.073,538.581,0.0
